[{"OBJECT_NAME":"STARLINK-4384","OBJECT_ID":"2022-084AF","EPOCH":"2025-11-11T04:12:52.193376","MEAN_MOTION":15.05652107,"ECCENTRICITY":0.00013581,"INCLINATION":97.6035,"RA_OF_ASC_NODE":14.4663,"ARG_OF_PERICENTER":95.2275,"MEAN_ANOMALY":264.9107,"EPHEMERIS_TYPE":0,"CLASSIFICATION_TYPE":"U","NORAD_CAT_ID":53218,"ELEMENT_SET_NO":999,"REV_AT_EPOCH":18207,"BSTAR":4.5256709e-5,"MEAN_MOTION_DOT":5.92e-6,"MEAN_MOTION_DDOT":0},{"OBJECT_NAME":"STARLINK-4373","OBJECT_ID":"2022-084AG","EPOCH":"2025-11-11T03:17:01.950432","MEAN_MOTION":15.05658381,"ECCENTRICITY":8.1e-5,"INCLINATION":97.6035,"RA_OF_ASC_NODE":14.3382,"ARG_OF_PERICENTER":141.4941,"MEAN_ANOMALY":218.6344,"EPHEMERIS_TYPE":0,"CLASSIFICATION_TYPE":"U","NORAD_CAT_ID":53219,"ELEMENT_SET_NO":999,"REV_AT_EPOCH":18154,"BSTAR":-7.1939038e-5,"MEAN_MOTION_DOT":-1.099e-5,"MEAN_MOTION_DDOT":0},{"OBJECT_NAME":"STARLINK-4363","OBJECT_ID":"2022-084AH","EPOCH":"2025-11-11T03:56:02.865120","MEAN_MOTION":15.01250487,"ECCENTRICITY":0.00037971,"INCLINATION":97.6025,"RA_OF_ASC_NODE":14.1625,"ARG_OF_PERICENTER":65.3058,"MEAN_ANOMALY":294.8561,"EPHEMERIS_TYPE":0,"CLASSIFICATION_TYPE":"U","NORAD_CAT_ID":53220,"ELEMENT_SET_NO":999,"REV_AT_EPOCH":18205,"BSTAR":-7.0197e-7,"MEAN_MOTION_DOT":-6.7e-7,"MEAN_MOTION_DDOT":0},{"OBJECT_NAME":"STARLINK-4377","OBJECT_ID":"2022-084AJ","EPOCH":"2025-11-11T03:45:21.447936","MEAN_MOTION":15.01270947,"ECCENTRICITY":0.00020311,"INCLINATION":97.6028,"RA_OF_ASC_NODE":14.1535,"ARG_OF_PERICENTER":88.0464,"MEAN_ANOMALY":272.0993,"EPHEMERIS_TYPE":0,"CLASSIFICATION_TYPE":"U","NORAD_CAT_ID":53221,"ELEMENT_SET_NO":999,"REV_AT_EPOCH":18153,"BSTAR":6.9861724e-5,"MEAN_MOTION_DOT":8.39e-6,"MEAN_MOTION_DDOT":0},{"OBJECT_NAME":"STARLINK-4356","OBJECT_ID":"2022-084AM","EPOCH":"2025-11-11T03:50:41.343936","MEAN_MOTION":15.01257033,"ECCENTRICITY":0.00031407,"INCLINATION":97.6036,"RA_OF_ASC_NODE":14.1579,"ARG_OF_PERICENTER":65.8305,"MEAN_ANOMALY":294.3247,"EPHEMERIS_TYPE":0,"CLASSIFICATION_TYPE":"U","NORAD_CAT_ID":53224,"ELEMENT_SET_NO":999,"REV_AT_EPOCH":18153,"BSTAR":4.3214517e-5,"MEAN_MOTION_DOT":4.97e-6,"MEAN_MOTION_DDOT":0},{"OBJECT_NAME":"STARLINK-4358","OBJECT_ID":"2022-084AN","EPOCH":"2025-11-11T03:21:00.929376","MEAN_MOTION":15.05650456,"ECCENTRICITY":0.00013167,"INCLINATION":97.6036,"RA_OF_ASC_NODE":14.3175,"ARG_OF_PERICENTER":88.0678,"MEAN_ANOMALY":272.07,"EPHEMERIS_TYPE":0,"CLASSIFICATION_TYPE":"U","NORAD_CAT_ID":53225,"ELEMENT_SET_NO":999,"REV_AT_EPOCH":18154,"BSTAR":0.00012674549,"MEAN_MOTION_DOT":1.769e-5,"MEAN_MOTION_DDOT":0},{"OBJECT_NAME":"STARLINK-4359","OBJECT_ID":"2022-084AP","EPOCH":"2025-11-11T03:34:40.963008","MEAN_MOTION":15.01264572,"ECCENTRICITY":0.00014016,"INCLINATION":97.6032,"RA_OF_ASC_NODE":14.1586,"ARG_OF_PERICENTER":211.8537,"MEAN_ANOMALY":148.2603,"EPHEMERIS_TYPE":0,"CLASSIFICATION_TYPE":"U","NORAD_CAT_ID":53226,"ELEMENT_SET_NO":999,"REV_AT_EPOCH":18153,"BSTAR":-1.4986981e-5,"MEAN_MOTION_DOT":-2.51e-6,"MEAN_MOTION_DDOT":0},{"OBJECT_NAME":"STARLINK-4366","OBJECT_ID":"2022-084AQ","EPOCH":"2025-11-11T02:53:06.352224","MEAN_MOTION":15.05652493,"ECCENTRICITY":0.0001073,"INCLINATION":97.6057,"RA_OF_ASC_NODE":14.3161,"ARG_OF_PERICENTER":94.953,"MEAN_ANOMALY":265.1819,"EPHEMERIS_TYPE":0,"CLASSIFICATION_TYPE":"U","NORAD_CAT_ID":53227,"ELEMENT_SET_NO":999,"REV_AT_EPOCH":18154,"BSTAR":0.00010598231,"MEAN_MOTION_DOT":1.469e-5,"MEAN_MOTION_DDOT":0},{"OBJECT_NAME":"STARLINK-4365","OBJECT_ID":"2022-084AR","EPOCH":"2025-11-11T03:40:01.198560","MEAN_MOTION":15.01261957,"ECCENTRICITY":4.006e-5,"INCLINATION":97.6035,"RA_OF_ASC_NODE":14.15,"ARG_OF_PERICENTER":172.6016,"MEAN_ANOMALY":187.5214,"EPHEMERIS_TYPE":0,"CLASSIFICATION_TYPE":"U","NORAD_CAT_ID":53228,"ELEMENT_SET_NO":999,"REV_AT_EPOCH":18153,"BSTAR":0.00010580684,"MEAN_MOTION_DOT":1.301e-5,"MEAN_MOTION_DDOT":0},{"OBJECT_NAME":"STARLINK-4367","OBJECT_ID":"2022-084AS","EPOCH":"2025-11-11T03:01:05.041056","MEAN_MOTION":15.05651914,"ECCENTRICITY":0.0001175,"INCLINATION":97.6061,"RA_OF_ASC_NODE":14.3262,"ARG_OF_PERICENTER":88.6355,"MEAN_ANOMALY":271.5006,"EPHEMERIS_TYPE":0,"CLASSIFICATION_TYPE":"U","NORAD_CAT_ID":53229,"ELEMENT_SET_NO":999,"REV_AT_EPOCH":18154,"BSTAR":5.9319239e-5,"MEAN_MOTION_DOT":7.95e-6,"MEAN_MOTION_DDOT":0},{"OBJECT_NAME":"STARLINK-4364","OBJECT_ID":"2022-084AT","EPOCH":"2025-11-11T04:04:53.178816","MEAN_MOTION":15.05655612,"ECCENTRICITY":0.00016533,"INCLINATION":97.6034,"RA_OF_ASC_NODE":14.428,"ARG_OF_PERICENTER":104.627,"MEAN_ANOMALY":255.5141,"EPHEMERIS_TYPE":0,"CLASSIFICATION_TYPE":"U","NORAD_CAT_ID":53230,"ELEMENT_SET_NO":999,"REV_AT_EPOCH":18155,"BSTAR":-2.9099726e-5,"MEAN_MOTION_DOT":-4.81e-6,"MEAN_MOTION_DDOT":0},{"OBJECT_NAME":"STARLINK-4370","OBJECT_ID":"2022-084AU","EPOCH":"2025-11-11T04:20:50.319744","MEAN_MOTION":15.05650577,"ECCENTRICITY":0.00014231,"INCLINATION":97.6045,"RA_OF_ASC_NODE":14.3971,"ARG_OF_PERICENTER":86.5232,"MEAN_ANOMALY":273.6158,"EPHEMERIS_TYPE":0,"CLASSIFICATION_TYPE":"U","NORAD_CAT_ID":53231,"ELEMENT_SET_NO":999,"REV_AT_EPOCH":18155,"BSTAR":0.00014966391,"MEAN_MOTION_DOT":2.099e-5,"MEAN_MOTION_DDOT":0},{"OBJECT_NAME":"STARLINK-4371","OBJECT_ID":"2022-084AV","EPOCH":"2025-11-11T03:29:21.647616","MEAN_MOTION":15.01269147,"ECCENTRICITY":0.00026024,"INCLINATION":97.6036,"RA_OF_ASC_NODE":14.1414,"ARG_OF_PERICENTER":193.2261,"MEAN_ANOMALY":166.8895,"EPHEMERIS_TYPE":0,"CLASSIFICATION_TYPE":"U","NORAD_CAT_ID":53232,"ELEMENT_SET_NO":999,"REV_AT_EPOCH":18153,"BSTAR":0.00016168946,"MEAN_MOTION_DOT":2.02e-5,"MEAN_MOTION_DDOT":0},{"OBJECT_NAME":"STARLINK-4372","OBJECT_ID":"2022-084AW","EPOCH":"2025-11-11T03:21:44.058528","MEAN_MOTION":15.01238526,"ECCENTRICITY":0.00030597,"INCLINATION":97.6043,"RA_OF_ASC_NODE":14.1396,"ARG_OF_PERICENTER":179.7027,"MEAN_ANOMALY":180.42,"EPHEMERIS_TYPE":0,"CLASSIFICATION_TYPE":"U","NORAD_CAT_ID":53233,"ELEMENT_SET_NO":999,"REV_AT_EPOCH":18153,"BSTAR":1.5229733e-5,"MEAN_MOTION_DOT":1.37e-6,"MEAN_MOTION_DDOT":0},{"OBJECT_NAME":"STARLINK-4368","OBJECT_ID":"2022-084AX","EPOCH":"2025-11-11T03:24:01.297152","MEAN_MOTION":15.01261018,"ECCENTRICITY":0.00030683,"INCLINATION":97.6037,"RA_OF_ASC_NODE":14.1335,"ARG_OF_PERICENTER":184.4923,"MEAN_ANOMALY":175.6274,"EPHEMERIS_TYPE":0,"CLASSIFICATION_TYPE":"U","NORAD_CAT_ID":53234,"ELEMENT_SET_NO":999,"REV_AT_EPOCH":18254,"BSTAR":2.0810421e-5,"MEAN_MOTION_DOT":2.09e-6,"MEAN_MOTION_DDOT":0},{"OBJECT_NAME":"STARLINK-4056","OBJECT_ID":"2022-086A","EPOCH":"2025-11-11T04:48:13.686624","MEAN_MOTION":15.08819543,"ECCENTRICITY":0.00014329,"INCLINATION":53.2193,"RA_OF_ASC_NODE":11.0313,"ARG_OF_PERICENTER":97.4256,"MEAN_ANOMALY":262.6899,"EPHEMERIS_TYPE":0,"CLASSIFICATION_TYPE":"U","NORAD_CAT_ID":53242,"ELEMENT_SET_NO":999,"REV_AT_EPOCH":18342,"BSTAR":0.00022257215,"MEAN_MOTION_DOT":3.254e-5,"MEAN_MOTION_DDOT":0}]
