STARLINK-4384           
1 53218U 22084AF  25315.17560409  .00000592  00000+0  45257-4 0  9995
2 53218  97.6035  14.4663 0001358  95.2275 264.9107 15.05652107182071
STARLINK-4373           
1 53219U 22084AG  25315.13682813 -.00001099  00000+0 -71939-4 0  9997
2 53219  97.6035  14.3382 0000810 141.4941 218.6344 15.05658381181545
STARLINK-4363           
1 53220U 22084AH  25315.16392205 -.00000067  00000+0 -70197-6 0  9996
2 53220  97.6025  14.1625 0003797  65.3058 294.8561 15.01250487182059
STARLINK-4377           
1 53221U 22084AJ  25315.15649824  .00000839  00000+0  69862-4 0  9998
2 53221  97.6028  14.1535 0002031  88.0464 272.0993 15.01270947181538
STARLINK-4356           
1 53224U 22084AM  25315.16020074  .00000497  00000+0  43215-4 0  9996
2 53224  97.6036  14.1579 0003140  65.8305 294.3247 15.01257033181537
STARLINK-4358           
1 53225U 22084AN  25315.13959409  .00001769  00000+0  12675-3 0  9995
2 53225  97.6036  14.3175 0001316  88.0678 272.0700 15.05650456181543
STARLINK-4359           
1 53226U 22084AP  25315.14908522 -.00000251  00000+0 -14987-4 0  9993
2 53226  97.6032  14.1586 0001401 211.8537 148.2603 15.01264572181530
STARLINK-4366           
1 53227U 22084AQ  25315.12021241  .00001469  00000+0  10598-3 0  9999
2 53227  97.6057  14.3161 0001073  94.9530 265.1819 15.05652493181543
STARLINK-4365           
1 53228U 22084AR  25315.15279165  .00001301  00000+0  10581-3 0  9990
2 53228  97.6035  14.1500 0000400 172.6016 187.5214 15.01261957181533
STARLINK-4367           
1 53229U 22084AS  25315.12575279  .00000795  00000+0  59319-4 0  9992
2 53229  97.6061  14.3262 0001175  88.6355 271.5006 15.05651914181546
STARLINK-4364           
1 53230U 22084AT  25315.17005994 -.00000481  00000+0 -29100-4 0  9990
2 53230  97.6034  14.4280 0001653 104.6270 255.5141 15.05655612181557
STARLINK-4370           
1 53231U 22084AU  25315.18113796  .00002099  00000+0  14966-3 0  9990
2 53231  97.6045  14.3971 0001423  86.5232 273.6158 15.05650577181551
STARLINK-4371           
1 53232U 22084AV  25315.14538944  .00002020  00000+0  16169-3 0  9994
2 53232  97.6036  14.1414 0002602 193.2261 166.8895 15.01269147181534
STARLINK-4372           
1 53233U 22084AW  25315.14009327  .00000137  00000+0  15230-4 0  9999
2 53233  97.6043  14.1396 0003059 179.7027 180.4200 15.01238526181537
STARLINK-4368           
1 53234U 22084AX  25315.14168168  .00000209  00000+0  20810-4 0  9999
2 53234  97.6037  14.1335 0003068 184.4923 175.6274 15.01261018182543
STARLINK-4056           
1 53242U 22086A   25315.20015841  .00003254  00000+0  22257-3 0  9995
2 53242  53.2193  11.0313 0001432  97.4256 262.6899 15.08819543183427
